{"type": "FeatureCollection", "features": [ {"type": "Feature", "properties": {"norad_id": 34432, "name": "COSMOS 2251 DEB", "group": "cosmos-2251-debris", "lat": -23.427658589004373, "lon": 100.44736055364355, "alt_km": 996.6290915190039, "timestamp": "2025-12-09T16:56:36.968572+00:00", "meta": {"OBJECT_NAME": "COSMOS 2251 DEB", "OBJECT_ID": "1993-036RZ", "EPOCH": "2025-12-08T19:32:50.005824", "MEAN_MOTION": 14.02881819, "ECCENTRICITY": 0.01828184, "INCLINATION": 73.8287, "RA_OF_ASC_NODE": 109.2404, "ARG_OF_PERICENTER": 192.5149, "MEAN_ANOMALY": 321.1458, "EPHEMERIS_TYPE": 0, "CLASSIFICATION_TYPE": "U", "NORAD_CAT_ID": 34432, "ELEMENT_SET_NO": 999, "REV_AT_EPOCH": 85629, "BSTAR": 0.0023167671, "MEAN_MOTION_DOT": 4.136e-05, "MEAN_MOTION_DDOT": 0}, "tle": {"line1": "1 34432U 93036RZ  25342.81446766  .00004136  00000+0  23168-2 0  9990", "line2": "2 34432  73.8287 109.2404 0182818 192.5149 321.1458 14.02881819856298"}}, "geometry": {"type": "Point", "coordinates": [100.44736055364355, -23.427658589004373]}}, {"type": "Feature", "properties": {"norad_id": 34433, "name": "COSMOS 2251 DEB", "group": "cosmos-2251-debris", "lat": -63.7149052877481, "lon": 15.799236404374657, "alt_km": 785.1987789367795, "timestamp": "2025-12-09T16:56:36.968583+00:00", "meta": {"OBJECT_NAME": "COSMOS 2251 DEB", "OBJECT_ID": "1993-036SA", "EPOCH": "2025-12-08T22:45:44.652672", "MEAN_MOTION": 14.12826602, "ECCENTRICITY": 0.0151933, "INCLINATION": 74.0116, "RA_OF_ASC_NODE": 161.6553, "ARG_OF_PERICENTER": 300.4832, "MEAN_ANOMALY": 58.1378, "EPHEMERIS_TYPE": 0, "CLASSIFICATION_TYPE": "U", "NORAD_CAT_ID": 34433, "ELEMENT_SET_NO": 999, "REV_AT_EPOCH": 85896, "BSTAR": 0.0014623, "MEAN_MOTION_DOT": 3.008e-05, "MEAN_MOTION_DDOT": 0}, "tle": {"line1": "1 34433U 93036SA  25342.94843348  .00003008  00000+0  14623-2 0  9995", "line2": "2 34433  74.0116 161.6553 0151933 300.4832  58.1378 14.12826602858967"}}, "geometry": {"type": "Point", "coordinates": [15.799236404374657, -63.7149052877481]}}, {"type": "Feature", "properties": {"norad_id": 34434, "name": "COSMOS 2251 DEB", "group": "cosmos-2251-debris", "lat": 28.231986462174547, "lon": 24.110032111966664, "alt_km": 1035.7844970993638, "timestamp": "2025-12-09T16:56:36.968594+00:00", "meta": {"OBJECT_NAME": "COSMOS 2251 DEB", "OBJECT_ID": "1993-036SB", "EPOCH": "2025-12-09T12:19:57.173952", "MEAN_MOTION": 13.89773507, "ECCENTRICITY": 0.0275698, "INCLINATION": 74.0626, "RA_OF_ASC_NODE": 15.6116, "ARG_OF_PERICENTER": 153.6749, "MEAN_ANOMALY": 357.6688, "EPHEMERIS_TYPE": 0, "CLASSIFICATION_TYPE": "U", "NORAD_CAT_ID": 34434, "ELEMENT_SET_NO": 999, "REV_AT_EPOCH": 83921, "BSTAR": 0.0023053, "MEAN_MOTION_DOT": 3.824e-05, "MEAN_MOTION_DDOT": 0}, "tle": {"line1": "1 34434U 93036SB  25343.51385618  .00003824  00000+0  23053-2 0  9994", "line2": "2 34434  74.0626  15.6116 0275698 153.6749 357.6688 13.89773507839213"}}, "geometry": {"type": "Point", "coordinates": [24.110032111966664, 28.231986462174547]}}, {"type": "Feature", "properties": {"norad_id": 34446, "name": "COSMOS 2251 DEB", "group": "cosmos-2251-debris", "lat": -65.11150124625287, "lon": 24.892016220769015, "alt_km": 733.0003251549342, "timestamp": "2025-12-09T16:56:36.968604+00:00", "meta": {"OBJECT_NAME": "COSMOS 2251 DEB", "OBJECT_ID": "1993-036SP", "EPOCH": "2025-12-09T07:19:52.243392", "MEAN_MOTION": 14.49347302, "ECCENTRICITY": 0.0051322, "INCLINATION": 74.0423, "RA_OF_ASC_NODE": 63.7217, "ARG_OF_PERICENTER": 202.536, "MEAN_ANOMALY": 157.3547, "EPHEMERIS_TYPE": 0, "CLASSIFICATION_TYPE": "U", "NORAD_CAT_ID": 34446, "ELEMENT_SET_NO": 999, "REV_AT_EPOCH": 88644, "BSTAR": 0.00027987, "MEAN_MOTION_DOT": 1.059e-05, "MEAN_MOTION_DDOT": 0}, "tle": {"line1": "1 34446U 93036SP  25343.30546578  .00001059  00000+0  27987-3 0  9997", "line2": "2 34446  74.0423  63.7217 0051322 202.5360 157.3547 14.49347302886449"}}, "geometry": {"type": "Point", "coordinates": [24.892016220769015, -65.11150124625287]}}, {"type": "Feature", "properties": {"norad_id": 34449, "name": "COSMOS 2251 DEB", "group": "cosmos-2251-debris", "lat": -55.81994943408721, "lon": 51.73755301592125, "alt_km": 606.799854483902, "timestamp": "2025-12-09T16:56:36.968615+00:00", "meta": {"OBJECT_NAME": "COSMOS 2251 DEB", "OBJECT_ID": "1993-036SS", "EPOCH": "2025-12-09T07:49:17.409216", "MEAN_MOTION": 14.94544215, "ECCENTRICITY": 0.0023566, "INCLINATION": 74.0323, "RA_OF_ASC_NODE": 77.4414, "ARG_OF_PERICENTER": 122.2048, "MEAN_ANOMALY": 294.3204, "EPHEMERIS_TYPE": 0, "CLASSIFICATION_TYPE": "U", "NORAD_CAT_ID": 34449, "ELEMENT_SET_NO": 999, "REV_AT_EPOCH": 88642, "BSTAR": 0.0039384, "MEAN_MOTION_DOT": 0.00043038, "MEAN_MOTION_DDOT": 0}, "tle": {"line1": "1 34449U 93036SS  25343.32589594  .00043038  00000+0  39384-2 0  9993", "line2": "2 34449  74.0323  77.4414 0023566 122.2048 294.3204 14.94544215886424"}}, "geometry": {"type": "Point", "coordinates": [51.73755301592125, -55.81994943408721]}}, {"type": "Feature", "properties": {"norad_id": 34451, "name": "COSMOS 2251 DEB", "group": "cosmos-2251-debris", "lat": -73.0746159529766, "lon": -15.948598005740596, "alt_km": 602.9548164107246, "timestamp": "2025-12-09T16:56:36.968625+00:00", "meta": {"OBJECT_NAME": "COSMOS 2251 DEB", "OBJECT_ID": "1993-036SU", "EPOCH": "2025-12-09T09:20:38.452416", "MEAN_MOTION": 14.95239862, "ECCENTRICITY": 0.0024488, "INCLINATION": 74.0461, "RA_OF_ASC_NODE": 94.6263, "ARG_OF_PERICENTER": 116.8755, "MEAN_ANOMALY": 243.4936, "EPHEMERIS_TYPE": 0, "CLASSIFICATION_TYPE": "U", "NORAD_CAT_ID": 34451, "ELEMENT_SET_NO": 999, "REV_AT_EPOCH": 88585, "BSTAR": 0.0039007, "MEAN_MOTION_DOT": 0.00043408, "MEAN_MOTION_DDOT": 0}, "tle": {"line1": "1 34451U 93036SU  25343.38933394  .00043408  00000+0  39007-2 0  9996", "line2": "2 34451  74.0461  94.6263 0024488 116.8755 243.4936 14.95239862885854"}}, "geometry": {"type": "Point", "coordinates": [-15.948598005740596, -73.0746159529766]}}, {"type": "Feature", "properties": {"norad_id": 34452, "name": "COSMOS 2251 DEB", "group": "cosmos-2251-debris", "lat": 2.8800374858696642, "lon": 8.273034076005388, "alt_km": 532.8050370431638, "timestamp": "2025-12-09T16:56:36.968636+00:00", "meta": {"OBJECT_NAME": "COSMOS 2251 DEB", "OBJECT_ID": "1993-036SV", "EPOCH": "2025-12-09T00:56:54.570336", "MEAN_MOTION": 15.11529096, "ECCENTRICITY": 0.0066815, "INCLINATION": 74.036, "RA_OF_ASC_NODE": 190.4766, "ARG_OF_PERICENTER": 267.6055, "MEAN_ANOMALY": 245.021, "EPHEMERIS_TYPE": 0, "CLASSIFICATION_TYPE": "U", "NORAD_CAT_ID": 34452, "ELEMENT_SET_NO": 999, "REV_AT_EPOCH": 90606, "BSTAR": 0.00087515552, "MEAN_MOTION_DOT": 0.00015644, "MEAN_MOTION_DDOT": 0}, "tle": {"line1": "1 34452U 93036SV  25343.03952049  .00015644  00000+0  87516-3 0  9997", "line2": "2 34452  74.0360 190.4766 0066815 267.6055 245.0210 15.11529096906064"}}, "geometry": {"type": "Point", "coordinates": [8.273034076005388, 2.8800374858696642]}}, {"type": "Feature", "properties": {"norad_id": 34453, "name": "COSMOS 2251 DEB", "group": "cosmos-2251-debris", "lat": 28.76125397004261, "lon": 115.1142467444189, "alt_km": 338.430185097086, "timestamp": "2025-12-09T16:56:36.968646+00:00", "meta": {"OBJECT_NAME": "COSMOS 2251 DEB", "OBJECT_ID": "1993-036SW", "EPOCH": "2025-12-09T10:42:37.806624", "MEAN_MOTION": 15.7251707, "ECCENTRICITY": 0.0022238, "INCLINATION": 74.1095, "RA_OF_ASC_NODE": 106.7048, "ARG_OF_PERICENTER": 342.5919, "MEAN_ANOMALY": 17.454, "EPHEMERIS_TYPE": 0, "CLASSIFICATION_TYPE": "U", "NORAD_CAT_ID": 34453, "ELEMENT_SET_NO": 999, "REV_AT_EPOCH": 88815, "BSTAR": 0.0092623, "MEAN_MOTION_DOT": 0.01409036, "MEAN_MOTION_DDOT": 0}, "tle": {"line1": "1 34453U 93036SW  25343.44627091  .01409036  00000+0  92623-2 0  9996", "line2": "2 34453  74.1095 106.7048 0022238 342.5919  17.4540 15.72517070888159"}}, "geometry": {"type": "Point", "coordinates": [115.1142467444189, 28.76125397004261]}}, {"type": "Feature", "properties": {"norad_id": 34454, "name": "COSMOS 2251 DEB", "group": "cosmos-2251-debris", "lat": -67.71702249528447, "lon": -121.00201511773489, "alt_km": 756.839488253182, "timestamp": "2025-12-09T16:56:36.968656+00:00", "meta": {"OBJECT_NAME": "COSMOS 2251 DEB", "OBJECT_ID": "1993-036SX", "EPOCH": "2025-12-09T05:36:17.697024", "MEAN_MOTION": 14.38800054, "ECCENTRICITY": 0.0035459, "INCLINATION": 74.0587, "RA_OF_ASC_NODE": 284.0942, "ARG_OF_PERICENTER": 347.3197, "MEAN_ANOMALY": 12.7061, "EPHEMERIS_TYPE": 0, "CLASSIFICATION_TYPE": "U", "NORAD_CAT_ID": 34454, "ELEMENT_SET_NO": 999, "REV_AT_EPOCH": 88017, "BSTAR": 0.00050323, "MEAN_MOTION_DOT": 1.532e-05, "MEAN_MOTION_DDOT": 0}, "tle": {"line1": "1 34454U 93036SX  25343.23353816  .00001532  00000+0  50323-3 0  9995", "line2": "2 34454  74.0587 284.0942 0035459 347.3197  12.7061 14.38800054880176"}}, "geometry": {"type": "Point", "coordinates": [-121.00201511773489, -67.71702249528447]}}, {"type": "Feature", "properties": {"norad_id": 34459, "name": "COSMOS 2251 DEB", "group": "cosmos-2251-debris", "lat": -16.561339928077633, "lon": -105.57712871716872, "alt_km": 760.4202804288525, "timestamp": "2025-12-09T16:56:36.968666+00:00", "meta": {"OBJECT_NAME": "COSMOS 2251 DEB", "OBJECT_ID": "1993-036TC", "EPOCH": "2025-12-09T11:52:47.438400", "MEAN_MOTION": 14.00491597, "ECCENTRICITY": 0.0192037, "INCLINATION": 74.0793, "RA_OF_ASC_NODE": 259.6565, "ARG_OF_PERICENTER": 330.169, "MEAN_ANOMALY": 28.8603, "EPHEMERIS_TYPE": 0, "CLASSIFICATION_TYPE": "U", "NORAD_CAT_ID": 34459, "ELEMENT_SET_NO": 999, "REV_AT_EPOCH": 85666, "BSTAR": 0.00091151, "MEAN_MOTION_DOT": 1.563e-05, "MEAN_MOTION_DDOT": 0}, "tle": {"line1": "1 34459U 93036TC  25343.49499350  .00001563  00000+0  91151-3 0  9990", "line2": "2 34459  74.0793 259.6565 0192037 330.1690  28.8603 14.00491597856667"}}, "geometry": {"type": "Point", "coordinates": [-105.57712871716872, -16.561339928077633]}}]}